Event 604846898 Iran-Armenia-Azerbaijan border region
   Date       Time        Err   RMS Latitude Longitude  Smaj  Smin  Az Depth   Err Ndef Nsta Gap  mdist  Mdist Qual   Author      OrigID
2012/08/11 12:34:19.40   0.68 0.200  37.5810   48.9450 318.4 999.9  -1  37.2  1000         4 347                      NSSC      01553715
2012/08/11 12:34:30.80   1.26 0.500  38.5890   46.7550  48.2  33.6  -1   0.0  47.3         6 309                      ISN       01733763
2012/08/11 12:34:32.37   0.18 1.010  38.4045   46.7896   8.6   1.7  12   9.9   1.1   59      224   0.81   3.30     uk AZER      04561751
2012/08/11 12:34:33.30        1.310  38.3900   46.7700                   6.0         93      319  22.40  61.20     uk BJI       01605222
2012/08/11 12:34:33.46   0.28 0.940  38.3985   46.7808   7.4   6.4  23   0.0f        87       24   2.36 154.81     uk IDC       01528763
2012/08/11 12:34:33.70   1.20        38.3430   46.7560   4.1   2.6 125  10.0        256                               MOS       04353239
2012/08/11 12:34:33.80        0.800  38.3940   46.8140                   4.0              69  87                      TEH       03971954
2012/08/11 12:34:33.93   0.06 1.125  38.3471   46.7369 1.500 1.055  18  10.0f      2116 2137  20   0.24  99.84 m i fe ISCJB     05512443
2012/08/11 12:34:34.50   0.48 0.200  38.5590   46.7740   8.5   2.6  -1  18.0  13.4         9 137                      THR       03877289
2012/08/11 12:34:34.94               38.4667   46.8833                  10.0                                          NSSP      02517417
2012/08/11 12:34:35.00   0.00        38.6200   47.1400   0.0   0.0      11.0   0.0                                 se NEIC      02946172
 (#CENTROID)
2012/08/11 12:34:35.90   0.11 0.980  38.3890   46.7450   3.2   2.1  10  12.0f       522       20   0.24 154.82     fe NEIC      02946170
2012/08/11 12:34:36.10        0.200  38.4800   46.7500                  10.0         10   10 358  21.90  23.10     ke PDG       01553131
2012/08/11 12:34:36.70   0.00 0.380  38.4700   46.7500                  10.0   0.0   20   20                       ke GII       03877970
2012/08/11 12:34:37.21   0.48 0.840  38.2043   46.8352  10.6   5.7  39   9.0   0.0   19        1   2.53  43.62        DSN       03873084
2012/08/11 12:34:37.82   5.00 1.950  39.0534   46.8508  46.2  30.7  47   0.0         10       86   8.88  20.50     se NNC       02420119
2012/08/11 12:34:38.90   0.10        38.3500   46.7800                  19.2   0.4  590  140                          GCMT      05248870
 (#CENTROID)
2012/08/11 12:34:36.60   0.46 1.630  38.3798   46.7958 3.019 2.220  16  18.9  1.74 2232 2152  18   0.20 164.71 m i fe ISC       05274332
 (#PRIME)

Magnitude  Err Nsta Author      OrigID
ML     5.2          NSSC      01553715
ML     6.1          ISN       01733763
ml     6.4 0.4   30 AZER      04561751
mb     5.9       78 BJI       01605222
mB     6.5       58 BJI       01605222
Ms     6.5       74 BJI       01605222
Ms7    6.4       69 BJI       01605222
mb     5.7 0.0   61 IDC       01528763
mb1    5.7 0.0   73 IDC       01528763
mb1mx  5.6 0.0   87 IDC       01528763
mbtmp  5.7 0.0   73 IDC       01528763
ML     4.9 0.1   12 IDC       01528763
MS     6.3 0.1   16 IDC       01528763
Ms1    6.3 0.1   16 IDC       01528763
ms1mx  5.7 0.1   81 IDC       01528763
mb     6.3      117 MOS       04353239
MS     6.3       26 MOS       04353239
ML     6.3          TEH       03971954
ML     6.0          THR       03877289
Ms     6.2          NSSP      02517417
mb     6.3      214 NEIC      02946170
ME     6.3          NEIC      02946170
MW     6.2          NEIC      02946170
ML     6.0          THR       02946170
MN     6.0          TEH       02946170
mb     6.2 0.0    9 PDG       01553131
mb     6.4 0.5   12 DSN       03873084
mb     6.5          NNC       02420119
mpv    6.3          NNC       02420119
MW     6.3      140 GCMT      05248870
mb     6.1 0.2  405 ISC       05274332

Event 602216240 Aegean Sea
   Date       Time        Err   RMS Latitude Longitude  Smaj  Smin  Az Depth   Err Ndef Nsta Gap  mdist  Mdist Qual   Author      OrigID
2013/01/08 14:15:54.96   0.00        38.9080   25.8940                  33.0                      12.98  18.41     ke BGR       03204201
2013/01/08 14:16:06.40        1.580  39.8700   25.4800                   5.0         95      321  38.20  76.70     uk BJI       02524226
2013/01/08 14:16:07.20        0.190  39.6482   25.4957                   8.0   0.1   77   74  69   0.47   4.08     ke ISK       02239039
2013/01/08 14:16:07.25   0.39 0.990  39.6686   25.5649   8.8   7.8  27   0.0f        56       45   5.83 137.90     uk IDC       02365625
2013/01/08 14:16:07.30   0.23 0.981  39.6829   25.5141 1.276 0.970  27   7.7  1.52 2281 2319   9   0.33  98.51 m i fe ISCJB     06371018
2013/01/08 14:16:07.80   0.00 0.380  39.6600   25.5400                  10.0   0.0   23   22                       ke GII       05596573
2013/01/08 14:16:08.00   0.20        39.6500   25.6000 1.112 1.112  -1  10.0f        69   27                          MED_RCMT  06112188
 (#CENTROID)
2013/01/08 14:16:08.10   1.03        39.7030   25.5590   3.3   2.3 107  15.0        275                               MOS       04349672
2013/01/08 14:16:08.30   0.61 1.040  39.6471   25.5533   0.4   0.5   0  18.2   1.0  317  293  11   0.38   8.10     ke PDG       02024172
2013/01/08 14:16:08.32        0.480  39.6663   25.5620   0.9   0.6  81  31.3   0.7   69      111   0.38   3.44     ke ATH       03268956
2013/01/08 14:16:08.80        0.700  39.6700   25.5498   0.9   0.4  87   7.6   0.9   77   62  52   0.36            ke THE       03500766
2013/01/08 14:16:08.90   0.50        39.6880   25.6240   0.1   0.1       0.0   0.0   33   27       2.10   6.95     ke BEO       02131594
2013/01/08 14:16:08.98   0.36 0.850  39.6560   25.5400   1.8   1.6 206  12.8   2.3  487       14   0.37 157.88     fe NEIC      02968176
2013/01/08 14:16:09.00   0.00        39.5600   25.5700   0.0   0.0      11.0   0.0                                 se NEIC      02968177
 (#CENTROID)
2013/01/08 14:16:09.00               39.6400   25.5500                  11.0          1      108                      ROM       05677635
2013/01/08 14:16:09.10   0.20 1.800  39.7000   25.5000                  10.0f                 52                      JSO       05570924
2013/01/08 14:16:09.40        0.800  39.6800   25.6700                  22.9   4.8        55 241                      DDA       04608495
2013/01/08 14:16:11.00   0.10        39.6200   25.6100                  14.6   0.6  637  140                          GCMT      05250748
 (#CENTROID)
2013/01/08 14:16:09.59   0.42 1.618  39.6681   25.5372 2.057 1.740  31  11.1  2.35 2338 2319   8   0.36 157.89 m i fe ISC       05894174
 (#PRIME)

Magnitude  Err Nsta Author      OrigID
mb     5.3          BGR       03204201
mb     5.5       74 BJI       02524226
mB     5.8       49 BJI       02524226
Ms     5.9       91 BJI       02524226
Ms7    5.8       81 BJI       02524226
ML     6.2       32 ISK       02239039
mb     5.3 0.1   31 IDC       02365625
mb1    5.4 0.1   43 IDC       02365625
mb1mx  5.3 0.1   47 IDC       02365625
mbtmp  5.3 0.1   43 IDC       02365625
ML     4.5 0.2   10 IDC       02365625
MS     5.4 0.1   41 IDC       02365625
Ms1    5.4 0.1   41 IDC       02365625
ms1mx  5.4 0.0   46 IDC       02365625
MW     5.8       27 MED_RCMT  06112188
mb     5.9       95 MOS       04349672
MS     5.7      110 MOS       04349672
MD     5.2 1.1    6 PDG       02024172
ML     5.2 0.2   10 PDG       02024172
ML     5.8       19 ATH       03268956
ML     5.9 0.1    8 THE       03500766
ML     5.9        5 BEO       02131594
mb     5.7      296 NEIC      02968176
MS     5.8      299 NEIC      02968176
MW     5.7          NEIC      02968176
MW     5.7          NEIC      02968176
MW     5.7          NEIC      02968176
ML     5.8          ATH       02968176
ML     5.9          THE       02968176
ML     6.2          ISK       02968176
Mw     5.8 0.0      ROM       05677635
M      5.9       31 JSO       05570924
mb     5.8 0.2   31 JSO       05570924
Mjma   5.8 0.3   27 JSO       05570924
MLv    6.1 0.2   13 JSO       05570924
MW     5.6          DDA       04608495
MW     5.8      140 GCMT      05250748
mb     5.8 0.1  451 ISC       05894174
MS     5.8 0.1  606 ISC       05894174

Event 607304565 Southern Iran
   Date       Time        Err   RMS Latitude Longitude  Smaj  Smin  Az Depth   Err Ndef Nsta Gap  mdist  Mdist Qual   Author      OrigID
2013/04/09 11:52:40.70   1.28 0.500  28.1330   51.8470 207.5 278.5  -1   0.0   288         6 338                      ISN       02449165
2013/04/09 11:52:46.20   0.00        28.3140   51.5550                   0.0                                       se THR       02984975
2013/04/09 11:52:48.21   0.36 1.020  28.4492   51.6093  10.2   9.1 168   0.0f        77       38   8.18 150.68     uk IDC       02506095
2013/04/09 11:52:48.30   0.92        28.4370   51.5860   4.2   2.6 109  13.0        269                               MOS       04350680
2013/04/09 11:52:48.55   0.33 1.026  28.4197   51.6168 2.278 1.227  28  13.2  2.08 2003 2550  20   1.37  99.91 m i de ISCJB     06826326
2013/04/09 11:52:49.10        0.700  28.4670   51.5680                  11.3              81 100                      TEH       05370342
2013/04/09 11:52:49.92   0.08 0.830  28.4280   51.5930   2.5   1.7  20  12.0f       427       21   1.36 150.70     de NEIC      02984973
2013/04/09 11:52:50.00        1.680  28.5000   51.6000                  20.0                 319  22.50  63.70     uk BJI       02760071
2013/04/09 11:52:50.00   0.00        28.4000   51.2500   0.0   0.0      11.0   0.0                                 se NEIC      02984976
 (#CENTROID)
2013/04/09 11:52:50.72   0.48 1.750  28.3696   51.6056   7.9   4.6  47  10.0f        70       52   3.60  87.33     uk OMAN      04356141
2013/04/09 11:52:51.15   0.39 0.930  28.4696   51.5942   9.2   5.0  46  10.0   0.0   22        4   4.67  34.69        DSN       04288971
2013/04/09 11:52:53.90   0.10        28.2700   51.6200f                 12.0f       736  128                          GCMT      05251914
 (#CENTROID)
2013/04/09 11:52:50.19   0.42 1.591  28.4463   51.6290 3.740 3.181  29  12.8  2.31 2324 2550  13   1.34 150.66 m i de ISC       06346046
 (#PRIME)

Magnitude  Err Nsta Author      OrigID
ML     6.3          ISN       02449165
mb     5.3 0.1   42 IDC       02506095
mb1    5.3 0.1   50 IDC       02506095
mb1mx  5.3 0.1   50 IDC       02506095
mbtmp  5.3 0.1   50 IDC       02506095
ML     4.5 0.1    7 IDC       02506095
MS     6.2 0.0   49 IDC       02506095
Ms1    6.2 0.0   49 IDC       02506095
ms1mx  6.2 0.1   59 IDC       02506095
mb     6.1      116 MOS       04350680
MS     6.3       97 MOS       04350680
ML     6.3          TEH       05370342
mb     5.9      264 NEIC      02984973
ME     6.0          NEIC      02984973
MS     6.3      299 NEIC      02984973
MW     6.2          NEIC      02984973
MW     6.4          NEIC      02984973
ML     6.0          THR       02984973
MN     6.1          TEH       02984973
mb     5.4       79 BJI       02760071
mB     6.4       85 BJI       02760071
Ms     6.5       86 BJI       02760071
Ms7    6.5       80 BJI       02760071
mb     6.4 0.3   11 OMAN      04356141
ms     6.8 0.2    8 OMAN      04356141
Mwp    6.4 0.4   28 OMAN      04356141
mb     6.2 0.4    9 DSN       04288971
ML     6.7 0.5   12 DSN       04288971
MW     6.3      128 GCMT      05251914
mb     5.9 0.2  470 ISC       06346046
MS     6.3 0.1  823 ISC       06346046

Event 607304923 Southern Iran
   Date       Time        Err   RMS Latitude Longitude  Smaj  Smin  Az Depth   Err Ndef Nsta Gap  mdist  Mdist Qual   Author      OrigID
2013/05/11 02:08:08.50f              26.5600   57.7700f                 15.0f                 33   1.30 132.93     de NEIC      02988442
2013/05/11 02:08:08.50        0.300  26.5980   57.8460                  14.5              92  63                      TEH       05370767
2013/05/11 02:08:08.50        0.400  26.5600   57.7700                  14.9                                          THR       06446536
2013/05/11 02:08:09.00   0.00 1.470  26.7600   57.8100                  14.0         96      312  19.30  60.50     uk BJI       02848368
2013/05/11 02:08:09.45   0.32 0.820  26.7906   57.9132   8.8   8.2  36   0.0f        76       36   3.60 133.13     uk IDC       05639634
2013/05/11 02:08:09.47   0.90 1.490  26.6108   58.1219  17.8   7.7 136  10.0   0.0   20        3   1.86  34.27        DSN       04289188
2013/05/11 02:08:09.66   0.35 1.159  26.7159   57.8565 2.223 1.685  17  11.1  2.22 1638 2099  17   1.24  99.91 m i de ISCJB     06914163
2013/05/11 02:08:10.00   0.94        26.7450   57.8990   4.0   2.5 116  17.0        290                               MOS       04351211
2013/05/11 02:08:11.00   0.00        26.5800   57.8800   0.0   0.0      13.0   0.0                                 se NEIC      02988444
 (#CENTROID)
2013/05/11 02:08:11.50   0.10        26.5500   57.7300f                 12.0f       787  128                          GCMT      05252252
 (#CENTROID)
2013/05/11 02:08:12.13   0.63 4.040  26.6912   57.9002  10.1   6.8  16  36.0f        37      274   1.70  10.26     uk OMAN      04356390
2013/05/11 02:08:11.29   0.32 1.869  26.6583   57.8438 2.989 2.813 125  15.1  1.74 1684 2100  23   1.27 135.43 m i de ISC       06516931
 (#PRIME)

Magnitude  Err Nsta Author      OrigID
mb     5.9      201 NEIC      02988442
MS     6.2      296 NEIC      02988442
MW     6.1          NEIC      02988442
MW     6.1          NEIC      02988442
MN     6.2          TEH       02988442
ML     6.1          TEH       05370767
Ms     6.2          THR       06446536
mb     5.3       75 BJI       02848368
mB     5.7       68 BJI       02848368
Ms     6.4       92 BJI       02848368
Ms7    6.4       72 BJI       02848368
mb     5.1 0.1   58 IDC       05639634
mb1    5.2 0.1   60 IDC       05639634
mb1mx  5.1 0.1   71 IDC       05639634
mbtmp  5.1 0.1   60 IDC       05639634
ML     5.2 0.2    2 IDC       05639634
MS     6.1 0.0   36 IDC       05639634
Ms1    6.1 0.0   36 IDC       05639634
ms1mx  6.0 0.0   45 IDC       05639634
mb     6.3 0.3    6 DSN       04289188
ML     6.1 0.3   11 DSN       04289188
mb     6.0      135 MOS       04351211
MS     6.1      100 MOS       04351211
MW     6.2      128 GCMT      05252252
ml     6.0 0.3   18 OMAN      04356390
ms     6.0 0.0    2 OMAN      04356390
Mwp    6.5 0.1   14 OMAN      04356390
mb     5.8 0.2  418 ISC       06516931
MS     6.3 0.1  840 ISC       06516931

Event 603337743 Southwest Indian Ridge
   Date       Time        Err   RMS Latitude Longitude  Smaj  Smin  Az Depth   Err Ndef Nsta Gap  mdist  Mdist Qual   Author      OrigID
2013/08/17 16:32:29.00   0.00 1.250 -34.8800   54.0600                  10.0         82      322  73.00 106.40     uk BJI       03160817
2013/08/17 16:32:29.87   0.38 0.820 -34.9171   54.1202  13.1   9.0  26   0.0f        57       58  17.41 172.98     uk IDC       03824484
2013/08/17 16:32:30.40   0.79       -34.8240   54.1610  11.2   5.0  97  10.0        143                               MOS       04353849
2013/08/17 16:32:31.27   1.62 0.800 -34.8942   54.1034  17.3       256  10.0f        53       36  14.85               NEIC      06642848
2013/08/17 16:32:31.35   1.57 0.770 -34.8814   54.0673  16.6       262  10.0f        52       31  14.84               NEIC      06642849
2013/08/17 16:32:31.41   1.69 0.830 -34.8853   54.0927  14.3       140  10.0f        69       22  14.84               NEIC      06642847
2013/08/17 16:32:31.50              -34.9830   54.0670                  11.0                                          NEIC      06642851
 (#CENTROID)
2013/08/17 16:32:34.40   0.10       -34.8900   54.1200f                 12.0f       827  147                          GCMT      05253380
 (#CENTROID)
2013/08/17 16:32:35                 -34.9100   54.1400                  12.0                                          NEIC      06642850
 (#CENTROID)
2013/08/17 16:32:31.83   0.44 2.168 -34.8867   54.1278 6.065 5.380  67  10.9  2.37 1169 1442  18  14.84 173.71 m i ke ISC       06935715
 (#PRIME)

Magnitude  Err Nsta Author      OrigID
mb     5.4       61 BJI       03160817
mB     5.8       54 BJI       03160817
Ms     6.0       79 BJI       03160817
Ms7    5.8       72 BJI       03160817
mb     5.2 0.0   45 IDC       03824484
mb1    5.3 0.0   46 IDC       03824484
mb1mx  5.2 0.0   53 IDC       03824484
mbtmp  5.2 0.1   46 IDC       03824484
ML     5.8 0.3    1 IDC       03824484
MS     5.8 0.1   30 IDC       03824484
Ms1    5.8 0.1   30 IDC       03824484
ms1mx  5.8 0.1   31 IDC       03824484
mb     6.0       50 MOS       04353849
MS     5.6       25 MOS       04353849
mb     5.9 0.1   75 NEIC      06642847
Ms_20  6.1 0.0  375 NEIC      06642847
Mwb    6.1 0.1      NEIC      06642847
Mww    6.1          NEIC      06642847
Mwc    6.2          GCMT      06642851
MW     6.2      147 GCMT      05253380
mb     5.7 0.2  191 ISC       06935715
MS     6.1 0.1  269 ISC       06935715

