Event 17394270 Turkey
   Date       Time        Err   RMS Latitude Longitude  Smaj  Smin  Az Depth   Err Ndef Nsta Gap  mdist  Mdist Qual   Author      OrigID
2011/10/23 10:41:10.93   3.26 1.330  38.1778   42.3731  41.4  21.4 147  11.7f        52      314   2.63   6.42     uk AZER      01494870
2011/10/23 10:41:17.47               38.6833   43.2167                  10.0                                          NSSP      01512912
2011/10/23 10:41:19.00   0.90 0.300  38.9020   43.4900  52.6   7.7  -1  12.4  64.2         6 316                      ISN       01732819
2011/10/23 10:41:20.30   1.36        38.6550   43.4350   3.6   2.5 122  10.0        329                               MOS       01815365
2011/10/23 10:41:20.70   0.87 0.400  38.7120   43.4370   3.0   5.4  -1  18.3  10.7        20 133                      ATA       01627387
2011/10/23 10:41:20.81        0.280  38.6890   43.4657                  19.0                 148                   ke DDA       02353580
2011/10/23 10:41:20.99   0.21 1.180  38.7330   43.4835   5.5   4.9 130   0.0f       165       29   1.72 156.05     uk IDC       00047901
2011/10/23 10:41:21.00               38.7500   43.4260                   5.0f             29                          ISK       00519805
2011/10/23 10:41:21.59   0.49 0.840  38.6145   43.3804  11.3   5.7  70   7.0   0.0   18        2   1.86  45.94        DSN       01450945
2011/10/23 10:41:21.60   0.00        38.8500   43.8400   0.0   0.0      13.0   0.0                                 se NEIC      02857644
 (#CENTROID)
2011/10/23 10:41:21.70        1.060  38.9000   43.4500                  20.0          2      318  24.90  63.60     uk BJI       00200432
2011/10/23 10:41:22.00   0.00 0.490  38.8600   43.4800                   1.0   0.1   19   19                       ke GII       01674155
2011/10/23 10:41:22.00               38.8600   43.4800                  10.0         13    8 351  30.16  39.01     ke SFS       02773673
2011/10/23 10:41:22.10   0.05 1.130  38.7576   43.4776   2.0   1.5 179  10.0       1333 1199  11   0.24 156.01     ke CSEM      02773654
2011/10/23 10:41:22.80               38.7110   43.5160                  16.0f        18   18 354  52.73  56.24     uk PDA       02773662
2011/10/23 10:41:22.90   0.10        38.6400   43.4000 1.112   0.0  -1  12.0   0.3 1183  155                          GCMT      00508565
 (#CENTROID)
2011/10/23 10:41:23.11   0.26 1.076  38.6998   43.4718 1.698 1.207   9  28.9  1.89 3943 4056  13   0.18  99.99 m i de ISCJB     03772862
2011/10/23 10:41:23.25   0.08 0.930  38.7210   43.5080   2.3   1.5 175  18.0f       693       20   0.21 154.54     de NEIC      02857640
2011/10/23 10:41:27.80        0.500  38.6650   43.7080                  18.0              17 297                      TEH       01718019
2011/10/23 10:41:44.50   0.00        39.4500   43.3500   0.0   0.0      16.0   0.0                                 se NEIC      02857643
 (#CENTROID)
2011/10/23 10:41:22.01   0.39 1.716  38.7294   43.4465 2.017 1.725 148   7.6  2.14 4394 4074  11   0.20 164.38 m i de ISC       03450721
 (#PRIME)

Magnitude  Err Nsta Author      OrigID
Ms     7.2          NSSP      01512912
ML     7.3          ISN       01732819
mb     6.7      140 MOS       01815365
MS     7.3      126 MOS       01815365
MW     7.0          ATA       01627387
Ml     6.7          DDA       02353580
mb     6.1 0.0   73 IDC       00047901
mb1    6.1 0.0   84 IDC       00047901
mb1mx  6.1 0.0   85 IDC       00047901
mbtmp  6.1 0.0   84 IDC       00047901
ML     4.7 0.1   11 IDC       00047901
MS     7.2 0.0   54 IDC       00047901
Ms1    7.2 0.0   54 IDC       00047901
ms1mx  7.0 0.1   65 IDC       00047901
ML     6.7          ISK       00519805
Mw     7.2          ISK       00519805
mb     6.8 0.5    5 DSN       01450945
Ms     7.5 0.2    8 DSN       01450945
mb     6.7       70 BJI       00200432
mB     7.3       73 BJI       00200432
Ms     7.4       95 BJI       00200432
Ms7    7.3       89 BJI       00200432
mb     7.3        1 GII       01674155
ML     7.3          SFS       02773673
mb     6.8 0.4   99 CSEM      02773654
Ms     7.3          CSEM      02773654
Mw     7.2          CSEM      02773654
mb     6.9          PDA       02773662
MW     7.1      155 GCMT      00508565
mb     6.9      298 NEIC      02857640
ME     7.1          NEIC      02857640
MS     7.3      296 NEIC      02857640
MW     7.1          NEIC      02857640
MW     7.1          NEIC      02857640
MW     7.3          NEIC      02857640
ML     6.6          ISK       02857640
ML     7.1          TEH       01718019
mb     6.8 0.2  639 ISC       03450721
MS     7.3 0.1  534 ISC       03450721

Event 600011114 South Indian Ocean
   Date       Time        Err   RMS Latitude Longitude  Smaj  Smin  Az Depth   Err Ndef Nsta Gap  mdist  Mdist Qual   Author      OrigID
2011/12/02 00:22:46.20        0.950 -34.3700   57.7200                   6.0         71      323  70.60 103.10     uk BJI       00525124
2011/12/02 00:22:50.50   0.76       -33.9340   58.1710  11.1   5.0 104  10.0        151                               MOS       01815552
2011/12/02 00:22:50.57   0.35 0.790 -33.9479   58.1493  12.8  10.2  41   0.0f        56       42  18.18 166.95     uk IDC       00220975
2011/12/02 00:22:52.00   0.10       -33.9700   58.2100 1.112 1.112  -1  31.1   0.8  350  114                          GCMT      03735717
 (#CENTROID)
2011/12/02 00:22:52.47   0.15 0.806 -33.9273   58.1994 4.588 3.477  16  22.0f       731 1225  22  12.90  99.22 m i ke ISCJB     03955218
2011/12/02 00:22:52.80   0.12 0.750 -34.0020   58.0780   4.3   3.2  37  15.0f       228       28  12.96 166.95     se NEIC      02906492
2011/12/02 00:22:56.80        0.330 -33.4000   58.1000                  33.0         36   25 359 180.00 180.00     ke PDG       00200683
2011/12/02 00:22:53.88   0.24 1.007 -34.0248   58.0439 7.209 5.942 111  22.0f      1196 1225  22  12.98 176.70 m i ke ISC       03764349
 (#PRIME)

Magnitude  Err Nsta Author      OrigID
mb     5.8       60 BJI       00525124
mB     5.6       39 BJI       00525124
Ms     5.6       49 BJI       00525124
Ms7    5.4       48 BJI       00525124
mb     6.0       52 MOS       01815552
MS     5.0       26 MOS       01815552
mb     5.5 0.1   40 IDC       00220975
mb1    5.5 0.1   41 IDC       00220975
mb1mx  5.4 0.1   50 IDC       00220975
mbtmp  5.4 0.1   41 IDC       00220975
ML     4.4 0.3    1 IDC       00220975
MS     4.7 0.0   30 IDC       00220975
Ms1    4.7 0.1   30 IDC       00220975
ms1mx  4.5 0.1   39 IDC       00220975
MW     5.4      114 GCMT      03735717
mb     5.7       79 NEIC      02906492
ME     5.5          NEIC      02906492
MS     5.1       96 NEIC      02906492
MW     5.6          NEIC      02906492
mb     5.6 0.1    8 PDG       00200683
mb     5.8 0.2  211 ISC       03764349
MS     5.1 0.2  140 ISC       03764349

Event 600212980 Northern and central Iran
   Date       Time        Err   RMS Latitude Longitude  Smaj  Smin  Az Depth   Err Ndef Nsta Gap  mdist  Mdist Qual   Author      OrigID
2012/01/19 12:35:42.60   1.25 0.500  36.4220   58.8350  13.2  13.7  -1   0.0   3.3         6 332                      ISN       01733967
2012/01/19 12:35:48.99   0.35 0.890  36.2074   58.8339   8.5   6.5   8   0.0f        69       41   1.81 148.78     uk IDC       00624680
2012/01/19 12:35:50.30   0.08 1.112  36.3195   58.9486 2.129 1.350  17  15.8d      1172 1132  20   0.14  99.10 m i de ISCJB     04257097
2012/01/19 12:35:50.73   0.54 0.940  36.3833   58.9189  10.1   6.2  84  10.0   0.0   18       11  10.60  42.58        DSN       03872421
2012/01/19 12:35:50.80   1.06        36.3790   58.9080   4.4   3.2 130  20.0        197                               MOS       01816032
2012/01/19 12:35:51.00   0.00        36.2800   58.8900   0.0   0.0      12.0   0.0                                 se NEIC      03206430
 (#CENTROID)
2012/01/19 12:35:51.20   0.65 0.300  36.3070   58.8700   7.3   8.4  -1  16.8  11.9        11 196                      THR       03877075
2012/01/19 12:35:51.30        0.400  36.2880   58.8350                   8.3               7 205                      TEH       01720312
2012/01/19 12:35:51.30f              36.2880   58.8350f                  8.3f                 41   0.21 148.75     de NEIC      03206429
2012/01/19 12:35:51.30   0.20        36.2700   58.9000 1.112 1.112  -1  19.7   0.5  313  101                          GCMT      03736251
 (#CENTROID)
2012/01/19 12:35:51.40        1.240  36.4500   59.2800                   6.0         89      313  13.20  53.80     uk BJI       00677526
2012/01/19 12:35:52.10   0.07 0.830  36.4000   58.9729   2.8   2.4  19  15.1        335  296  32   0.05  70.11     ke CSEM      03221670
2012/01/19 12:35:52.45   2.63 3.370  36.3700   59.3685  26.9   8.3  30   0.0         21       35   1.76  19.79     se NNC       01621948
2012/01/19 12:35:51.82   0.32 1.562  36.3590   58.9610 3.781 2.628  39  15.1  1.79 1270 1132  20   0.10 162.13 m i de ISC       03898644
 (#PRIME)

Magnitude  Err Nsta Author      OrigID
ML     5.5          ISN       01733967
mb     5.1 0.1   51 IDC       00624680
mb1    5.2 0.1   54 IDC       00624680
mb1mx  5.2 0.0   63 IDC       00624680
mbtmp  5.1 0.1   54 IDC       00624680
ML     3.9 0.3    3 IDC       00624680
MS     4.8 0.1   40 IDC       00624680
Ms1    4.8 0.1   40 IDC       00624680
ms1mx  4.6 0.1   54 IDC       00624680
mb     5.4 0.6    3 DSN       03872421
mb     5.7       47 MOS       01816032
MS     5.1       12 MOS       01816032
ML     5.4          THR       03877075
ML     5.5          TEH       01720312
mb     5.6        3 NEIC      03206429
MW     5.1          NEIC      03206429
MW     5.1          NEIC      03206429
MN     5.5          TEH       03206429
MW     5.3      101 GCMT      03736251
mb     5.4       80 BJI       00677526
mB     5.4       66 BJI       00677526
Ms     5.4       79 BJI       00677526
Ms7    5.2       74 BJI       00677526
mb     5.5 0.3   52 CSEM      03221670
Mw     5.1          CSEM      03221670
mb     6.0          NNC       01621948
mb     5.4 0.2  193 ISC       03898644
MS     5.0 0.3   71 ISC       03898644

Event 600319862 Owen Fracture Zone region
   Date       Time        Err   RMS Latitude Longitude  Smaj  Smin  Az Depth   Err Ndef Nsta Gap  mdist  Mdist Qual   Author      OrigID
2012/02/04 21:50:48.73   0.45 0.940  13.0143   57.5739  12.1  10.3 166   0.0f        55       74  10.22 128.68     uk IDC       00758380
2012/02/04 21:50:48.78   0.67 1.160  13.0291   57.4816 4.266 2.994  18  10.0  4.18  729  803  64   5.28  97.77 m i ke ISCJB     04395644
2012/02/04 21:50:48.90   1.13        13.0940   57.5020   6.0   3.6 106  10.0        156                               MOS       01816244
2012/02/04 21:50:49.80        1.870  13.1000   57.6000                  10.0         84      312  30.40  69.70     uk BJI       00797196
2012/02/04 21:50:50.57   0.19 1.060  13.0460   57.5610   5.1   4.0  21  10.0f       159       65  10.19 145.86     se NEIC      02909562
2012/02/04 21:50:50.60   0.11 0.930  13.0479   57.5345   4.8   3.8  24  10.0f       330  325  64   5.28 145.96     ke CSEM      03236283
2012/02/04 21:50:50.60   0.10        12.9900   57.4900 1.112 1.112  -1  12.0f       389  134                          GCMT      03736445
 (#CENTROID)
2012/02/04 21:50:51.26   0.15 1.050  13.0674   57.5484   6.8   2.7  31  10.0f        32      150   5.28  53.40     uk OMAN      03420706
2012/02/04 21:50:51.57   0.84 0.790  13.1415   57.5907  17.7   8.1 105  10.2   0.0   15       10   5.24  44.06        DSN       03872456
2012/02/04 21:50:51.38   0.49 1.664  13.0894   57.5871 5.769 4.788 163  14.4  2.68  797  803  64   5.26 145.87 m i ke ISC       04211469
 (#PRIME)

Magnitude  Err Nsta Author      OrigID
mb     4.8 0.0   45 IDC       00758380
mb1    4.8 0.0   47 IDC       00758380
mb1mx  4.8 0.0   70 IDC       00758380
mbtmp  4.8 0.0   47 IDC       00758380
ML     4.2 0.0    2 IDC       00758380
MS     4.8 0.0   56 IDC       00758380
Ms1    4.7 0.0   56 IDC       00758380
ms1mx  4.7 0.0   62 IDC       00758380
mb     5.5       71 MOS       01816244
MS     4.7       33 MOS       01816244
mb     5.0       58 BJI       00797196
mB     5.4       57 BJI       00797196
Ms     5.3       72 BJI       00797196
Ms7    5.1       67 BJI       00797196
mb     5.3       78 NEIC      02909562
MS     5.0      121 NEIC      02909562
mb     5.4 0.4   99 CSEM      03236283
Ms     5.0          CSEM      03236283
Mw     5.5          CSEM      03236283
MW     5.5      134 GCMT      03736445
mb     5.2 0.6    6 DSN       03872456
ML     4.5 0.0    1 DSN       03872456
Ms     5.0 0.2    9 DSN       03872456
mb     5.2 0.2  232 ISC       04211469
MS     5.0 0.2  212 ISC       04211469

Event 604084447 Iran-Armenia-Azerbaijan border region
   Date       Time        Err   RMS Latitude Longitude  Smaj  Smin  Az Depth   Err Ndef Nsta Gap  mdist  Mdist Qual   Author      OrigID
2012/08/11 12:23:11.80   1.32 0.500  38.5870   46.8700  49.9  36.0  -1   0.0  49.3         6 309                      ISN       01733762
2012/08/11 12:23:12.36   9.77 1.250  38.3064   46.7765   5.5   1.3  22   8.6   0.4   63      231   0.87   3.40     uk AZER      04561750
2012/08/11 12:23:14.00               38.4167   46.8833                  10.0                                          NSSP      02517416
2012/08/11 12:23:14.20        1.450  38.3400   46.8200                   6.0                 319  22.40  61.20     uk BJI       01605221
2012/08/11 12:23:15.20        0.500  38.3930   46.8060                   9.0              78  74                      TEH       03971949
2012/08/11 12:23:15.79   0.29 0.920  38.3545   46.7713   7.4   6.6  21   0.0f        84       22   2.39 151.47     uk IDC       01528761
2012/08/11 12:23:15.90   0.94 0.400  38.1540   47.3310 553.0 999.9  -1  36.8  1000         4 347                      NSSC      01553714
2012/08/11 12:23:16.30   1.27        38.3600   46.8130   3.9   2.5 129  11.0        262                               MOS       04353237
2012/08/11 12:23:16.45   0.31 1.172  38.3043   46.8096 1.767 1.148  14  13.3  2.04 2378 2403  21   0.18  99.77 m i de ISCJB     05512441
2012/08/11 12:23:17.00   0.00        38.3800   47.1300   0.0   0.0      11.0   0.0                                 se NEIC      02946167
 (#CENTROID)
2012/08/11 12:23:17.30   0.52 0.200  38.6280   46.9110   4.6   2.8  -1  34.1   5.5        10 143                      THR       03877286
2012/08/11 12:23:17.50   5.49 1.970  38.5939   46.8824  52.3  35.3  43   0.0         10       86   8.84  20.57     se NNC       02420118
2012/08/11 12:23:18.19   0.14 1.230  38.3290   46.8260   3.9   2.4 183  11.0f       510       21   2.43 151.44     de NEIC      02946164
2012/08/11 12:23:18.40   0.45 0.750  38.2041   46.9756   9.8   5.1  39   9.0   0.0   19        1   2.60  43.60        DSN       03873083
2012/08/11 12:23:20.20   0.10        38.3100   46.8000                  15.0f       958  148                          GCMT      05248868
 (#CENTROID)
2012/08/11 12:23:33.20   0.00        38.9800   46.5500   0.0   0.0      10.0   0.0                                 se NEIC      02946166
 (#CENTROID)
2012/08/11 12:23:17.67   0.38 1.872  38.4023   46.8380 2.660 2.053  11   8.7  2.11 2443 2407  20   0.18 164.69 m i de ISC       05274328
 (#PRIME)

Magnitude  Err Nsta Author      OrigID
ML     6.2          ISN       01733762
ml     6.4 0.3   31 AZER      04561750
Ms     6.4          NSSP      02517416
mb     5.8       81 BJI       01605221
mB     6.3       69 BJI       01605221
Ms     6.6       99 BJI       01605221
Ms7    6.6       86 BJI       01605221
ML     6.5          TEH       03971949
mb     5.4 0.0   59 IDC       01528761
mb1    5.4 0.0   71 IDC       01528761
mb1mx  5.3 0.0   87 IDC       01528761
mbtmp  5.4 0.0   71 IDC       01528761
ML     4.5 0.2   11 IDC       01528761
MS     6.5 0.0   76 IDC       01528761
Ms1    6.5 0.0   76 IDC       01528761
ms1mx  6.4 0.0   83 IDC       01528761
mb     6.2      109 MOS       04353237
MS     6.5       89 MOS       04353237
ML     6.0          THR       03877286
mb     6.4          NNC       02420118
mpv    6.3          NNC       02420118
mb     6.2      297 NEIC      02946164
ME     6.9          NEIC      02946164
MS     6.7      299 NEIC      02946164
MW     6.3          NEIC      02946164
MW     6.4          NEIC      02946164
MW     6.4          NEIC      02946164
MN     6.2          TEH       02946164
mb     6.2 0.5   12 DSN       03873083
Ms     6.9 0.3   10 DSN       03873083
MW     6.5      148 GCMT      05248868
mb     6.1 0.2  521 ISC       05274328
MS     6.6 0.1  535 ISC       05274328

