DATA_TYPE EVENT IMS1.0
Reviewed ISC Bulletin
Event 14373453 Turkey
   Date       Time        Err   RMS Latitude Longitude  Smaj  Smin  Az Depth   Err Ndef Nsta Gap  mdist  Mdist Qual   Author      OrigID
2010/03/08 02:32:22.00   5.55 2.000  39.3680   40.5570 213.2 144.3  -1   0.0   161        21 311                      NSSC      00194546
2010/03/08 02:32:26.78        0.320  39.5240   40.4590                   4.0                                          NIC       14344963
2010/03/08 02:32:30.36        0.500  38.7665   40.0712                   5.0              39  68                   ke DDA       00164114
2010/03/08 02:32:31.10               38.8310   40.1310                   2.0             105                          ISK       14642123
2010/03/08 02:32:31.20        1.210  39.1200   39.6900                  12.0         96      319  27.70  66.50     uk BJI       14595145
2010/03/08 02:32:32.76   0.27 1.170  38.8193   39.9882   5.9   4.2 169   0.0f        97       52   3.91 127.89     uk IDC       16662222
2010/03/08 02:32:32.80   0.89        38.8640   39.9540   4.0   2.7 114  10.0        236                               MOS       14878728
2010/03/08 02:32:33.50               38.8200   40.0500                   2.0                                          ROM       06111631
2010/03/08 02:32:33.50   0.30        38.9500   40.0000 2.224 1.112  -1  14.7   1.0   75   26                          MED_RCMT  06111632
 (#CENTROID)
2010/03/08 02:32:33.52   0.06 0.989  38.8027   40.0340 1.409 1.008   4  14.7d      2764 2753  10   0.36  99.94 m i de ISCJB     00981799
2010/03/08 02:32:33.70               37.4940   39.2700                  33.0f                                         SZGRF     14943860
2010/03/08 02:32:34.10   0.04 0.990  38.8268   40.1050   1.8   1.3   1  10.0        999  869  10   0.30 146.59     ke CSEM      00062273
2010/03/08 02:32:34.70   0.10        38.8200   40.0400 1.112   0.0  -1  15.1   0.4  676  127                          GCMT      00123231
 (#CENTROID)
2010/03/08 02:32:34.71   0.09 0.760  38.8640   39.9860   2.4   1.9 181  12.0f       379       22   1.34 146.69     de NEIC      00284536
2010/03/08 02:32:35.00        0.000  38.8860   39.9740                   5.9              22 360                      TEH       16020212
2010/03/08 02:32:35.00               38.8500   39.9500                  10.0          8    4 357  27.49  36.32     ke SFS       00062292
2010/03/08 02:32:35.00   0.00        38.8900   39.9700   0.0   0.0      15.0   0.0                                 se NEIC      00284541
 (#CENTROID)
2010/03/08 02:32:36.86   4.03 0.580  38.5582   40.4183   4.6   1.6 285  10.0   0.0   12       19   3.70  47.88        DSN       00120832
2010/03/08 02:32:48.50   0.00        39.4500   40.1800   0.0   0.0      10.0   0.0                                 se NEIC      00284540
 (#CENTROID)
2010/03/08 02:33:18.50   2.57 1.000  38.4130   41.8220  30.7  70.2  -1   0.0   8.8         5 348                      ISN       14741619
2010/03/08 02:32:35.04   0.26 1.424  38.7884   40.0440 2.155 1.764   0  12.2  1.36 2896 2753  10   0.36 146.63 m i de ISC       00302632
 (#PRIME)

Magnitude  Err Nsta Author      OrigID
ML     5.1          NSSC      00194546
mb     6.2          NIC       14344963
ML     6.1          NIC       14344963
MW     3.7          NIC       14344963
ML     5.8          DDA       00164114
ML     6.0          ISK       14642123
mb     5.6       72 BJI       14595145
mB     5.8       50 BJI       14595145
Ms     6.3       89 BJI       14595145
Ms7    6.1       78 BJI       14595145
mb     5.4 0.0   44 IDC       16662222
mb1    5.4 0.0   56 IDC       16662222
mb1mx  5.4 0.0   62 IDC       16662222
mbtmp  5.3 0.0   56 IDC       16662222
ML     4.2 0.1   11 IDC       16662222
MS     5.9 0.0   41 IDC       16662222
Ms1    5.9 0.0   41 IDC       16662222
ms1mx  5.9 0.0   42 IDC       16662222
mb     6.0      122 MOS       14878728
MS     5.9      105 MOS       14878728
mb     5.9          ROM       06111631
MW     6.1       26 MED_RCMT  06111632
mb     5.9          SZGRF     14943860
MS     5.7          SZGRF     14943860
mb     5.8 0.4   99 CSEM      00062273
Ms     6.0          CSEM      00062273
Mw     6.1          CSEM      00062273
MW     6.1      127 GCMT      00123231
mb     5.9      263 NEIC      00284536
ME     6.3          NEIC      00284536
MS     6.0      299 NEIC      00284536
MW     5.9          NEIC      00284536
MW     6.0          NEIC      00284536
MW     6.1          NEIC      00284536
ML     6.0          ISK       00284536
ML     5.9          TEH       16020212
ML     6.0          SFS       00062292
mb     5.8 0.4    9 DSN       00120832
ML     6.8 0.0    1 DSN       00120832
Ms     6.6 0.2    8 DSN       00120832
ML     4.1          ISN       14741619
mb     5.8 0.2  400 ISC       00302632
MS     6.0 0.1  427 ISC       00302632

Event 600257778 Spain
   Date       Time        Err   RMS Latitude Longitude  Smaj  Smin  Az Depth   Err Ndef Nsta Gap  mdist  Mdist Qual   Author      OrigID
2010/04/11 22:08:02.30               36.5400   -3.7600                 673.0         28   14 274   1.57   8.23     uk CNRM      00077009
2010/04/11 22:08:04.30               36.1300   -3.5600                 621.5f                                         SZGRF     14944010
2010/04/11 22:08:05.80   1.72 0.380  36.9500   -3.7130   8.5   5.7  34 644.5   6.0   73   62  61   0.10   7.23     ke INMG      14581324
2010/04/11 22:08:09.30        0.750  37.4800   -3.8700                 614.0         91      326  60.40  97.70     uk BJI       14595753
2010/04/11 22:08:10.00   0.00        37.0800   -3.4700   0.0   0.0     616.0   0.0                                 se NEIC      00287855
 (#CENTROID)
2010/04/11 22:08:10.60   0.86        37.0150   -3.5280   6.4   3.2  63 632.0        259                               MOS       14954292
2010/04/11 22:08:10.70   0.09 1.270  36.9116   -3.5719   4.1   2.9 141 612.6   0.0            39   0.08 162.87     ke LDG       14174584
2010/04/11 22:08:10.93   0.07 0.889  37.0292   -3.5156 1.828 1.106 170 630.7  0.78 3907 3510   9   0.19  99.96 m i fe ISCJB     00997842
2010/04/11 22:08:11.00        0.000  37.0500   -3.5100                 619.7                 356  75.88  77.49     uk NEIC      07243087
2010/04/11 22:08:11.37   0.31 0.960  37.0421   -3.5719   5.5   4.8 117 618.2   3.3  131       32   2.65 162.75     uk IDC       16666381
2010/04/11 22:08:11.40               37.0500   -3.4900                                                                CRAAG     14816708
2010/04/11 22:08:11.47               37.0400   -3.5100                 624.0        166                               GFZ       05293189
2010/04/11 22:08:11.50   0.03 0.920  37.0866   -3.5350   1.8   1.1 171 618.2       1516 1211  13   0.14 178.72     ke CSEM      00076993
2010/04/11 22:08:11.50               37.0220   -3.5170                 623.0f        24   17 351  17.21  21.80     uk PDA       00077012
2010/04/11 22:08:11.53   0.19 0.950  36.9684   -3.5369   5.8   4.9 126 623.1   1.7  294       41   0.14  15.27     fe MDD       15929930
2010/04/11 22:08:11.60               37.1200   -3.5000                 623.0                                          CSEM      06111647
2010/04/11 22:08:11.60   0.50        36.6800   -3.7900 3.336 3.336  -1 633.2   2.0   69   25                          MED_RCMT  06111648
 (#CENTROID)
2010/04/11 22:08:12.00               36.9600   -3.5400                   0.0         10    5 164   0.74   6.79     ke SFS       00077001
2010/04/11 22:08:12.40        0.200  36.9650   -3.5420f                610.0f              3                          IGIL      14328783
2010/04/11 22:08:12.79f              36.9650   -3.5420f                609.8f                 14   0.13 178.61     fe NEIC      00287852
2010/04/11 22:08:12.80   0.10        37.1000   -3.6900 1.112 1.112  -1 616.5   0.7  479  129                          GCMT      00123609
 (#CENTROID)
2010/04/11 22:08:13.50   0.56 0.900  36.9600   -3.3200   0.0   0.0   0 600.0f        52   43 323   6.33  15.39     ke STR       16034800
2010/04/11 22:08:24.70   0.00        37.1300   -3.6700   0.0   0.0     624.0   0.0                                 se NEIC      00287854
 (#CENTROID)
2010/04/11 22:08:11.32   0.17 1.251  37.0075   -3.4764 3.229 2.836 149 619.6  1.42 4771 3642  13   0.19 178.67 m i fe ISC       00686831
 (#PRIME)

Magnitude  Err Nsta Author      OrigID
mb     5.6          SZGRF     14944010
MD     3.8          INMG      14581324
ML     4.9          INMG      14581324
mb     5.8       70 BJI       14595753
mB     6.1       64 BJI       14595753
mb     6.0      101 MOS       14954292
Ml     5.7 0.1    2 LDG       14174584
ms     4.7        5 LDG       14174584
mb     5.2 0.1   53 IDC       16666381
mb1    5.3 0.1   60 IDC       16666381
mb1mx  5.2 0.1   61 IDC       16666381
mbtmp  6.2 0.1   60 IDC       16666381
Mw     6.2          CRAAG     14816708
MW     6.3          GFZ       05293189
mb     5.9 0.4   99 CSEM      00076993
Ms     5.8          CSEM      00076993
Mw     6.3          CSEM      00076993
mb     4.7 0.1   61 MDD       15929930
mb     6.2          CSEM      06111647
MW     6.3       25 MED_RCMT  06111648
ML     5.4          IGIL      14328783
mb     6.0      261 NEIC      00287852
ME     5.7          NEIC      00287852
MW     6.3          NEIC      00287852
MW     6.3          NEIC      00287852
MW     6.3          NEIC      00287852
MW     6.3      129 GCMT      00123609
Ml     5.9 0.0      STR       16034800
mb     6.0 0.2  377 ISC       00686831

Event 14998998 Southern Iran
   Date       Time        Err   RMS Latitude Longitude  Smaj  Smin  Az Depth   Err Ndef Nsta Gap  mdist  Mdist Qual   Author      OrigID
2010/07/20 19:38:02.30        0.930  26.9400   53.0700                  10.0         79      318  22.40  63.70     uk BJI       15168959
2010/07/20 19:38:04.90   1.39 0.700  26.7470   54.0760 502.1 668.4  -1   0.0   633         5 342                      ISN       14884993
2010/07/20 19:38:08.31   0.32 0.960  27.0942   53.9882  10.3   8.2  24   0.0f        82       38  11.35 131.52     uk IDC       16676304
2010/07/20 19:38:08.60   0.09 1.130  27.0916   53.8644 2.402 1.379  22  11.2d      1790 1770  18   1.42  99.26 m i de ISCJB     01411585
2010/07/20 19:38:09.50   0.20        26.8900   53.6500 2.224 1.112  -1  12.0f       311  106                          GCMT      00124471
 (#CENTROID)
2010/07/20 19:38:09.53   0.16 0.970  27.0220   53.8610   4.2   2.8 195  10.0f       233       35   1.48 131.58     de NEIC      00918078
2010/07/20 19:38:10.08   1.61 0.610  27.2504   53.7515   9.2   6.4  40  16.5  11.9   13        6   2.43  35.57        DSN       00277016
2010/07/20 19:38:10.21   0.93 0.500  27.3476   53.7937  51.7  20.1 341 100.3   486   12      299   2.65  10.00     uk OMAN      00216437
2010/07/20 19:38:10.50   0.72 0.400  26.9730   53.8330   8.9   5.1  -1  34.3   8.4        12 209                      THR       00006287
2010/07/20 19:38:11.60   0.07 0.990  27.1231   53.8728   3.3   2.1  27  20.0f       639  618  25   1.40 131.62     ke CSEM      00242421
2010/07/20 19:38:12.00        0.700  27.0400   53.8990                   9.5              12 247                      TEH       17022555
2010/07/20 19:38:15.70   0.89        27.1170   53.8670   5.7   3.1 119  35.0        200                               MOS       16740955
2010/07/20 19:38:24.70               27.5900   51.9400                  33.0f                                         SZGRF     15747204
2010/07/20 19:38:10.49   0.32 1.341  27.0362   53.8984 3.820 2.887  31  14.4  1.69 1876 1771  15   1.48 131.56 m i de ISC       01004435
 (#PRIME)

Magnitude  Err Nsta Author      OrigID
mb     5.2       65 BJI       15168959
mB     5.8       28 BJI       15168959
Ms     5.8       40 BJI       15168959
Ms7    5.5       37 BJI       15168959
ML     4.5          ISN       14884993
mb     5.4 0.0   51 IDC       16676304
mb1    5.4 0.0   55 IDC       16676304
mb1mx  5.4 0.0   55 IDC       16676304
mbtmp  5.3 0.0   55 IDC       16676304
ML     4.4 0.2    3 IDC       16676304
MS     5.4 0.1   30 IDC       16676304
Ms1    5.4 0.1   30 IDC       16676304
ms1mx  5.2 0.1   59 IDC       16676304
MW     5.8      106 GCMT      00124471
mb     5.6       91 NEIC      00918078
ML     5.7          THR       00918078
MN     5.8          TEH       00918078
mb     5.0 0.4    9 DSN       00277016
ML     6.7 0.2    7 DSN       00277016
Ms     5.4 0.0    1 DSN       00277016
ML     5.5          THR       00006287
mb     5.7 0.3   99 CSEM      00242421
Ms     5.4          CSEM      00242421
Mw     5.8          CSEM      00242421
ML     5.8          TEH       17022555
mb     5.8       72 MOS       16740955
MS     5.5       34 MOS       16740955
mb     5.5          SZGRF     15747204
mb     5.7 0.2  329 ISC       01004435
MS     5.5 0.2   77 ISC       01004435

Event 15674101 Southern Iran
   Date       Time        Err   RMS Latitude Longitude  Smaj  Smin  Az Depth   Err Ndef Nsta Gap  mdist  Mdist Qual   Author      OrigID
2010/11/26 12:33:40.00        0.700  28.0400   52.4730                  12.0              64  79                      TEH       17023198
2010/11/26 12:33:40.50        1.040  28.1000   52.6000                   8.0         89      319  22.00  63.30     uk BJI       15549470
2010/11/26 12:33:42.16   0.43 1.041  28.0689   52.5611 2.710 1.528  24  19.2  3.19 1606 1622  23   0.43  98.39 m i fe ISCJB     01777337
2010/11/26 12:33:42.20   0.10        27.9400   52.4700 1.112 1.112  -1  12.0f       412  109                          GCMT      00125763
 (#CENTROID)
2010/11/26 12:33:42.27   0.13 1.070  28.0630   52.5640   3.4   2.6  18   9.0f       283       20   0.43 132.15     fe NEIC      01483996
2010/11/26 12:33:42.70   0.06 0.980  28.1080   52.5569   3.0   2.1  29  10.0f       505  486  20   0.42 132.70     ke CSEM      01329629
2010/11/26 12:33:42.86        0.660  27.1700   51.9100                  33.0                 242  36.54  41.48     ke BGR       16815969
2010/11/26 12:33:43.00               28.1100   52.5300                  10.1          3    3 358  45.43  49.00     ke SFS       01329642
2010/11/26 12:33:43.40   1.86 0.980  27.9636   52.4207  31.6  19.6  35  10.1f        13      168   4.01  20.10     uk OMAN      00216722
2010/11/26 12:33:44.10   1.09 0.400  28.2350   52.6140  10.1   5.3  -1   6.2   8.5         6 195                      THR       00006395
2010/11/26 12:33:44.50   0.85        28.1500   52.5600   4.8   3.0 110  33.0        205                               MOS       16742588
2010/11/26 12:33:45.38   0.34 0.310  28.1710   52.8173   8.5   2.9  65  10.1   0.0   15        2   3.64  33.62        DSN       00277429
2010/11/26 12:33:45.50   1.66 0.830  28.1062   52.5990   8.0   7.7 128  30.2  11.6   81       43  10.83 132.20     uk IDC       16690477
2010/11/26 12:34:15.80   2.26 0.900  28.2540   48.9690  19.2  22.4  -1   0.0   8.2         5 332                      ISN       15381176
2010/11/26 12:33:43.63   0.31 1.245  28.0598   52.5456 3.525 2.987   5  17.2  1.64 1724 1638  20   0.45 132.14 m i fe ISC       01504434
 (#PRIME)

Magnitude  Err Nsta Author      OrigID
ML     5.4          TEH       17023198
mb     5.4       77 BJI       15549470
mB     5.4       64 BJI       15549470
Ms     5.5       79 BJI       15549470
Ms7    5.2       71 BJI       15549470
MW     5.5      109 GCMT      00125763
mb     5.7      142 NEIC      01483996
ME     5.6          NEIC      01483996
MS     5.2       94 NEIC      01483996
MW     5.3          NEIC      01483996
ML     5.4          THR       01483996
MN     5.4          TEH       01483996
mb     5.7 0.3   99 CSEM      01329629
Ms     5.4          CSEM      01329629
Mw     5.6          CSEM      01329629
mb     5.3          BGR       16815969
Ms     4.8          BGR       16815969
ML     5.6          SFS       01329642
ML     5.4          THR       00006395
mb     5.8       85 MOS       16742588
MS     5.0       41 MOS       16742588
mb     5.0 0.5   12 DSN       00277429
ML     6.5 0.3    9 DSN       00277429
Ms     5.7 0.4    2 DSN       00277429
mb     5.1 0.0   57 IDC       16690477
mb1    5.1 0.0   62 IDC       16690477
mb1mx  5.1 0.0   66 IDC       16690477
mbtmp  5.3 0.0   62 IDC       16690477
ML     4.5 0.3    4 IDC       16690477
MS     4.9 0.0   42 IDC       16690477
Ms1    4.9 0.0   42 IDC       16690477
ms1mx  4.8 0.1   51 IDC       16690477
ML     5.6          ISN       15381176
mb     5.6 0.2  358 ISC       01504434
MS     5.1 0.2  156 ISC       01504434

