Event 609096383 Crete
   Date       Time        Err   RMS Latitude Longitude  Smaj  Smin  Az Depth   Err Ndef Nsta Gap  mdist  Mdist Qual   Author      OrigID
2013/10/12 13:11:47.01   1.05 1.100  35.5117   23.2433   8.2   7.7 125  10.3   5.6   92       48  10.18 165.51     uk IDC       03321524
2013/10/12 13:11:47.80   0.35 0.440  35.1369   22.8950  10.6   4.4  90  38.4   5.3   54   27 309   6.00  10.56     ke PDG       07165378
2013/10/12 13:11:48.70   1.44 1.270  35.5600   23.3100                  47.0   0.0   27   26                       ke GII       05597079
2013/10/12 13:11:50.00   0.00 1.860  35.4900   23.2600                  33.0         99      324  41.30  80.00     uk BJI       03260715
2013/10/12 13:11:52.60        0.410  35.5193   23.2283                  52.8   1.0   31   28 215   0.62   5.81     ke ISK       07105344
2013/10/12 13:11:53.04        0.690  35.5042   23.2773   2.3   0.8 203  65.2   2.2  101      185   0.36   5.91     ke ATH       06062328
2013/10/12 13:11:53.35   2.46 1.210  35.5142   23.2523  12.0       189  40.0f       280       40   1.98               NEIC      07284466
2013/10/12 13:11:53.45   0.18 1.287  35.5906   23.4022 2.122 1.323  18  52.0  1.45 2491 2693  39   0.29  99.96 m i ke ISCJB     07539196
2013/10/12 13:11:54.00   0.20        35.3700   23.3800 1.112 1.112  -1  40.0f        60   23                          MED_RCMT  06112372
 (#CENTROID)
2013/10/12 13:11:54.20   1.30        35.6380   23.3640   3.4   1.8  90  39.0        321                               MOS       04438308
2013/10/12 13:11:54.70        0.550  35.4708   23.2812   2.5   0.7  50  47.0   2.5   46   34 196   0.40            ke THE       03508256
2013/10/12 13:11:55.44        0.190  35.2008   23.6278   2.2            40.0  19.9                                    HLW       04523451
2013/10/12 13:11:56.30   0.10        35.3700   23.3700f                 15.0f       972  157                          GCMT      05253999
 (#CENTROID)
2013/10/12 13:11:53.65   0.27 2.100  35.5277   23.3718 3.395 3.050  14  46.9  1.94 2736 2693  35   0.34 166.36 m i ke ISC       07312180
 (#PRIME)

Magnitude  Err Nsta Author      OrigID
mb     5.9 0.1   35 IDC       03321524
mb1    5.9 0.1   44 IDC       03321524
mb1mx  5.9 0.1   44 IDC       03321524
mbtmp  5.9 0.1   44 IDC       03321524
ML     4.7 0.2    7 IDC       03321524
MS     6.3 0.0   48 IDC       03321524
Ms1    6.3 0.0   48 IDC       03321524
ms1mx  6.3 0.1   53 IDC       03321524
ML     6.3 0.1    9 PDG       07165378
mb     6.0        1 GII       05597079
MD     6.4        1 GII       05597079
mb     6.3       77 BJI       03260715
mB     6.5       77 BJI       03260715
Ms     6.5       94 BJI       03260715
Ms7    6.4       88 BJI       03260715
ML     6.4       14 ISK       07105344
ML     6.2       22 ATH       06062328
mb     6.4 0.0  329 NEIC      07284466
Ms_20  6.4 0.0  790 NEIC      07284466
Mwb    6.5 0.0      NEIC      07284466
Mww    6.6          NEIC      07284466
ML     6.2          ATH       07284466
ML     6.2          THE       07284466
Mwc    6.7          GCMT      07284466
MW     6.5       23 MED_RCMT  06112372
mb     6.7       21 MOS       04438308
MS     6.3       75 MOS       04438308
ML     6.2 0.2    6 THE       03508256
Ml     6.9          HLW       04523451
MW     6.8      157 GCMT      05253999
mb     6.4 0.1  412 ISC       07312180
MS     6.4 0.1  526 ISC       07312180

