Event 15813625 Southern Iran
   Date       Time        Err   RMS Latitude Longitude  Smaj  Smin  Az Depth   Err Ndef Nsta Gap  mdist  Mdist Qual   Author      OrigID
2010/12/20 18:41:53.70        1.140  28.5800   58.7400                   5.0                 311  17.50  58.70     uk BJI       16011120
2010/12/20 18:41:57.75   0.37 1.295  28.3931   59.1697 2.518 1.486  23  10.6  2.29 1938 2145  20   2.04  98.63 m i de ISCJB     02145594
2010/12/20 18:41:57.80   1.12        28.3530   59.2230   5.5   3.1 120  15.0        220                               MOS       16742878
2010/12/20 18:41:58.10   0.81 0.400  28.3530   59.2350   3.7   6.5  -1  16.9  13.8        17 148                      THR       00006420
2010/12/20 18:41:58.30        0.500  28.4430   59.1530                  13.3              61 147                      TEH       17023312
2010/12/20 18:41:58.80   0.53 0.920  28.2391   59.3284   9.7   6.7 124  10.0   0.0   17        2   3.55  33.12        DSN       00277502
2010/12/20 18:41:59.00   0.10        28.1000   59.1100   0.0   0.0  -1  14.8   0.4  795  126                          GCMT      00126003
 (#CENTROID)
2010/12/20 18:41:59.00   0.00        28.4400   59.1000   0.0   0.0      15.0   0.0                                 se NEIC      01602399
 (#CENTROID)
2010/12/20 18:41:59.10   1.20 0.000  28.3480   59.2510  18.8  72.5  -1  13.3  84.3         2 342                      ISN       15798869
2010/12/20 18:41:59.20   0.14 1.210  28.4120   59.1800   4.0   3.2 205  12.0f       279       24   2.63 137.35     de NEIC      01602397
2010/12/20 18:41:59.70   0.08 1.050  28.3803   59.2348   3.5   2.7  16  15.0        584  523  23   2.09 137.38     ke CSEM      01398046
2010/12/20 18:41:59.79   0.01 0.900  28.2365   59.2164   3.2   1.2 310  11.8f        20       96   3.48  56.19     uk OMAN      00216852
2010/12/20 18:42:01.38   1.99 0.880  28.3828   59.1802   8.9   7.3 134  31.8  14.7   71       48   5.15 137.34     uk IDC       16692850
2010/12/20 18:42:16.50        0.590  28.8400   56.1280                  10.0                 293  37.99  42.65     ke BGR       16816065
2010/12/20 18:42:21.20   0.00        28.6900   58.9000   0.0   0.0      10.0   0.0                                 se NEIC      01602400
 (#CENTROID)
2010/12/20 18:41:59.92   0.34 1.735  28.3681   59.1500 3.560 2.752  32  14.5  1.86 2031 2148  20   2.05 151.89 m i de ISC       01614004
 (#PRIME)

Magnitude  Err Nsta Author      OrigID
mb     5.8       77 BJI       16011120
mB     6.3       52 BJI       16011120
Ms     6.9       91 BJI       16011120
Ms7    6.7       83 BJI       16011120
mb     6.1       92 MOS       16742878
MS     6.6       90 MOS       16742878
ML     6.4          THR       00006420
MW     6.4          THR       00006420
ML     6.5          TEH       17023312
mb     6.0 0.3   14 DSN       00277502
ML     7.8 0.1    9 DSN       00277502
Ms     6.4 0.6    4 DSN       00277502
MW     6.5      126 GCMT      00126003
mb     6.1      150 NEIC      01602397
ME     6.9          NEIC      01602397
MS     6.7      295 NEIC      01602397
MW     6.3          NEIC      01602397
MW     6.5          NEIC      01602397
MW     6.7          NEIC      01602397
ML     6.2          THR       01602397
MN     6.5          TEH       01602397
mb     6.1 0.4   99 CSEM      01398046
Ms     6.6          CSEM      01398046
Mw     6.6          CSEM      01398046
mb     5.2 0.1   51 IDC       16692850
mb1    5.2 0.1   55 IDC       16692850
mb1mx  5.2 0.0   59 IDC       16692850
mbtmp  5.4 0.1   55 IDC       16692850
ML     5.0 0.2    4 IDC       16692850
MS     6.5 0.0   59 IDC       16692850
Ms1    6.5 0.0   59 IDC       16692850
ms1mx  6.5 0.0   62 IDC       16692850
mb     5.0          BGR       16816065
MB     5.9          BGR       16816065
Ms     6.3          BGR       16816065
mb     5.9 0.3  355 ISC       01614004
MS     6.7 0.1  461 ISC       01614004

Event 601990163 Southern Iran
   Date       Time        Err   RMS Latitude Longitude  Smaj  Smin  Az Depth   Err Ndef Nsta Gap  mdist  Mdist Qual   Author      OrigID
2011/01/27 08:38:23.80        1.110  28.3400   58.5700                  10.0          1      311  17.70  59.00     uk BJI       17040219
2011/01/27 08:38:26.68   0.28 1.030  28.1708   59.0662   8.0   7.4 164   0.0f        88       32   4.93 137.14     uk IDC       16698701
2011/01/27 08:38:27.87   2.22 1.390  28.1073   59.1587  10.1   4.5 110   2.9  15.0   25       91   3.36  67.03     uk OMAN      01599009
2011/01/27 08:38:28.25   0.37 1.163  28.1481   58.9852 2.253 1.616  19  21.2  2.74 1888 2157  20   1.99  98.82 m i fe ISCJB     02291825
2011/01/27 08:38:28.34   0.13 1.050  28.1950   59.0150   4.0   2.6  13  10.0f       296       24   4.10 137.12     fe NEIC      01739028
2011/01/27 08:38:28.50   0.95 0.400  28.1460   59.0900   5.2   3.8  -1  15.0   0.0         7 109                      THR       01800700
2011/01/27 08:38:28.70   0.10        28.0200   59.0200 1.112   0.0  -1  14.3   0.6  748  138                          GCMT      00126525
 (#CENTROID)
2011/01/27 08:38:28.70   0.06 0.930  28.1819   59.0272   2.5   2.3  18  12.3        694  614  20   2.09 137.12     ke CSEM      01653257
2011/01/27 08:38:29.00               28.2000   59.0000                  15.0         10    6 354  46.18  54.79     ke SFS       01653268
2011/01/27 08:38:29.00   0.00        28.1900   58.9700   0.0   0.0      15.0   0.0                                 se NEIC      01739030
 (#CENTROID)
2011/01/27 08:38:29.20   0.96        28.0950   59.0390   4.7   3.0 116  33.0        213                               MOS       16802844
2011/01/27 08:38:32.80        0.500  28.2890   58.9480                  10.0              46 218                      TEH       01716324
2011/01/27 08:38:30.04   0.28 1.531  28.1510   59.0520 3.333 2.949   9  18.5  1.03 2038 2158  17   2.05 151.81 m i ke ISC       01768515
 (#PRIME)

Magnitude  Err Nsta Author      OrigID
mb     5.6       78 BJI       17040219
mB     5.9       63 BJI       17040219
Ms     6.5       95 BJI       17040219
Ms7    6.3       88 BJI       17040219
mb     5.1 0.0   67 IDC       16698701
mb1    5.1 0.0   71 IDC       16698701
mb1mx  5.1 0.0   80 IDC       16698701
mbtmp  5.1 0.0   71 IDC       16698701
ML     5.0 0.2    4 IDC       16698701
MS     6.1 0.0   61 IDC       16698701
Ms1    6.1 0.0   61 IDC       16698701
ms1mx  6.0 0.0   73 IDC       16698701
mb     5.8      144 NEIC      01739028
MS     6.2      299 NEIC      01739028
MW     6.1          NEIC      01739028
MW     6.2          NEIC      01739028
MN     6.0          TEH       01739028
ML     5.8          THR       01800700
MW     6.2      138 GCMT      00126525
mb     5.9 0.5   99 CSEM      01653257
Ms     6.1          CSEM      01653257
Mw     6.2          CSEM      01653257
ML     5.9          SFS       01653268
mb     5.8       99 MOS       16802844
MS     6.1      108 MOS       16802844
ML     6.0          TEH       01716324
mb     5.7 0.2  346 ISC       01768515
MS     6.2 0.1  550 ISC       01768515

Event 16021308 North of Ascension Island
   Date       Time        Err   RMS Latitude Longitude  Smaj  Smin  Az Depth   Err Ndef Nsta Gap  mdist  Mdist Qual   Author      OrigID
2011/02/12 02:53:12.72   0.15 0.799   0.0067  -16.9797 4.819 2.109 156   8.4d      1160 1190  22   8.31  99.56 m i se ISCJB     02451016
2011/02/12 02:53:12.90        1.890   0.0700  -16.9800                   7.0         26      322  91.90 127.60     uk BJI       17040467
2011/02/12 02:53:13.50   0.93         0.1610  -17.0020   8.4   3.8  58  10.0        170                               MOS       01808932
2011/02/12 02:53:13.76   0.40 0.860   0.1896  -17.0955  15.0   9.9 151   0.0f        43       65  19.70 145.83     uk IDC       16710119
2011/02/12 02:53:15.10   0.10         0.3100  -17.0500 1.112 1.112  -1  15.0f       493  130                          GCMT      00126689
 (#CENTROID)
2011/02/12 02:53:15.10   0.15 0.900   0.0790  -17.0180   5.1   2.8 158  10.0f       269       24   8.39 145.70     se NEIC      01793953
2011/02/12 02:53:14.06   0.48 0.941   0.0477  -17.0245 7.549 5.938 140   4.8  2.81 1189 1190  22   8.36 145.69 m i se ISC       01962106
 (#PRIME)

Magnitude  Err Nsta Author      OrigID
mb     5.6        5 BJI       17040467
mB     6.1        6 BJI       17040467
Ms     5.6       12 BJI       17040467
Ms7    5.4       12 BJI       17040467
mb     5.7       69 MOS       01808932
MS     5.4       15 MOS       01808932
mb     4.8 0.1   36 IDC       16710119
mb1    4.9 0.1   37 IDC       16710119
mb1mx  4.9 0.0   42 IDC       16710119
mbtmp  4.8 0.1   37 IDC       16710119
ML     5.7 0.3    1 IDC       16710119
MS     5.1 0.0   27 IDC       16710119
Ms1    5.1 0.0   27 IDC       16710119
ms1mx  5.0 0.0   33 IDC       16710119
MW     5.7      130 GCMT      00126689
mb     5.5      124 NEIC      01793953
mb     5.4 0.2  224 ISC       01962106
MS     5.2 0.1   48 ISC       01962106

Event 600575114 Crete
   Date       Time        Err   RMS Latitude Longitude  Smaj  Smin  Az Depth   Err Ndef Nsta Gap  mdist  Mdist Qual   Author      OrigID
2011/04/01 13:29:06.70   0.60 0.200  35.6610   26.6470   7.7  95.4  -1  33.1   132        10 332                      NSSC      01490461
2011/04/01 13:29:08.25   0.20 0.169  35.5400   26.6300                  60.0                                       fe NIC       16842340
2011/04/01 13:29:08.40               35.5020   26.5800                  57.0             124                          ISK       16178879
2011/04/01 13:29:08.46        0.070  35.7359   26.7262   1.4            33.2  13.9                                    HLW       01552437
2011/04/01 13:29:09.30   0.28 0.310  34.9932   25.7053  11.2   8.3  90  11.5   5.1   50   25 317   5.18  11.75     ke PDG       15876299
2011/04/01 13:29:10.02   0.13 1.082  35.6556   26.5777 1.740 1.056   4  75.3  1.03 3062 2810  20   0.49  99.94 m i fe ISCJB     03130049
2011/04/01 13:29:10.20        0.830  35.7000   26.5000                  80.0          2      324  38.70  77.50     uk BJI       17041657
2011/04/01 13:29:10.57        0.380  35.6432   26.5643   2.2   0.4 146  63.1   2.1  100      109   0.49   6.56     ke ATH       02098267
2011/04/01 13:29:10.60   0.08 1.180  35.5658   26.6019   2.8   1.7   5  80.0        679  569  30   0.46 102.99     ke CSEM      01871618
2011/04/01 13:29:10.69f              35.6620   26.5600f                 59.9f                 24   0.50 152.78     fe NEIC      02134661
2011/04/01 13:29:10.70   0.10        35.4900   26.6700 1.112 1.112  -1  75.8   0.6  722  137                          GCMT      00127543
 (#CENTROID)
2011/04/01 13:29:11.00               35.5400   26.0300                  60.0         12    9 347  17.75  25.93     ke SFS       01871627
2011/04/01 13:29:11.00               35.5400   26.6300                  60.0                                          ROM       06111787
2011/04/01 13:29:11.00   0.20        35.5000   26.5800 1.112 1.112  -1  82.9   2.5   45   22                          MED_RCMT  06111788
 (#CENTROID)
2011/04/01 13:29:11.40   1.03        35.7380   26.5050   4.2   2.4  93  89.0        243                               MOS       01810259
2011/04/01 13:29:11.42   0.52 0.950  35.7906   26.4969   6.2   4.8 146  73.6   4.4  137       41   1.40 156.45     uk IDC       16720925
2011/04/01 13:29:12.00   0.00        35.7300   26.6500   0.0   0.0      77.0   0.0                                 se NEIC      02134664
 (#CENTROID)
2011/04/01 13:29:12.10               35.7200   26.5480                  80.0f        10   10 356  41.05  43.55     uk PDA       01871625
2011/04/01 13:29:12.60        0.570  35.6460   26.5693   2.9   0.5 155  43.7   2.9   98   81 108   0.50            ke THE       00985781
2011/04/01 13:29:13.60   0.00 0.430  35.1588   27.2674                   5.0   0.1   32   23                       ke GII       01674005
2011/04/01 13:29:20.30   0.00        35.9100   26.4600   0.0   0.0      54.0   0.0                                 se NEIC      02134663
 (#CENTROID)
2011/04/01 13:29:43.81        0.360  35.4819   26.4011                   9.0                 289                   uk DDA       01362285
2011/04/01 13:29:11.51   0.23 1.649  35.7317   26.5466 3.131 2.497 152  75.5  1.63 3210 2814  25   0.53 167.18 m i fe ISC       02174038
 (#PRIME)

Magnitude  Err Nsta Author      OrigID
ML     5.6          NSSC      01490461
ML     6.2          ISK       16178879
Ml     5.8          HLW       01552437
MD     6.1 0.2   10 PDG       15876299
ML     6.0 0.1   10 PDG       15876299
mb     5.8       84 BJI       17041657
mB     5.9       56 BJI       17041657
Ms     5.7       91 BJI       17041657
Ms7    5.4       85 BJI       17041657
ML     6.2       16 ATH       02098267
mb     6.1 0.4   81 CSEM      01871618
Ms     5.7          CSEM      01871618
Mw     6.1          CSEM      01871618
mb     6.2       52 NEIC      02134661
ME     6.2          NEIC      02134661
MW     6.0          NEIC      02134661
MW     6.1          NEIC      02134661
MW     6.1          NEIC      02134661
MW     6.1      137 GCMT      00127543
ML     6.0          SFS       01871627
mb     6.0          ROM       06111787
MW     6.2       22 MED_RCMT  06111788
mb     6.4       62 MOS       01810259
MS     5.3       35 MOS       01810259
mb     5.6 0.0   71 IDC       16720925
mb1    5.7 0.0   82 IDC       16720925
mb1mx  5.6 0.1   88 IDC       16720925
mbtmp  5.9 0.0   82 IDC       16720925
MS     5.3 0.0   51 IDC       16720925
Ms1    5.3 0.0   51 IDC       16720925
ms1mx  5.2 0.0   65 IDC       16720925
Mw     6.1          PDA       01871625
ML     6.2 0.1    6 THE       00985781
mb     5.8        3 GII       01674005
MD     6.1        3 GII       01674005
Ml     6.2          DDA       01362285
mb     6.1 0.2  344 ISC       02174038

Event 17206003 Ethiopia
   Date       Time        Err   RMS Latitude Longitude  Smaj  Smin  Az Depth   Err Ndef Nsta Gap  mdist  Mdist Qual   Author      OrigID
2011/06/12 21:03:16.40        0.990  13.2300   41.2800                   4.0         77      324  39.80  81.00     uk BJI       17042565
2011/06/12 21:03:20.91   0.39 0.810  13.3835   41.6924   9.9   8.6  52   0.0f        66       66   2.16 125.95     uk IDC       16731186
2011/06/12 21:03:21.19   0.14 1.031  13.5349   41.6499 3.187 1.982  19   7.9d      1224 1402  49   2.31  97.39 m i fe ISCJB     03194096
2011/06/12 21:03:22.40   1.03        13.5720   41.6040   6.7   3.1  99  14.0        180                               MOS       01811529
2011/06/12 21:03:22.50   0.09 0.940  13.5525   41.6808   4.3   3.0  19   5.3        452  434  49   2.31 128.76     ke CSEM      02254014
2011/06/12 21:03:22.60   0.00 0.000  13.5900   41.6000   0.0   0.0 124               29   29       6.55  11.81     ke STR       00010407
2011/06/12 21:03:23.10   0.10        13.5800   41.8000 1.112 1.112  -1  12.0f       381  117                          GCMT      00128397
 (#CENTROID)
2011/06/12 21:03:23.16   0.16 0.970  13.5300   41.6410   4.5   3.3 222  10.0f       249       50   2.86 128.75     fe NEIC      02427354
2011/06/12 21:03:23.60   0.60 0.200  13.5470   42.2370   2.6  15.8  -1   6.4  17.5         3 286                      DHMR      01623554
2011/06/12 21:03:26.82   1.07 0.480  13.8046   41.9557  18.2  10.4 178   9.9   0.0   14       10  16.33  47.97        DSN       01450602
2011/06/12 21:03:22.30   0.48 1.350  13.5228   41.6994 4.963 4.455  98   3.2  2.68 1387 1402  49   2.28 128.79 m i fe ISC       02756494
 (#PRIME)

Magnitude  Err Nsta Author      OrigID
mb     5.3       71 BJI       17042565
mB     5.5       30 BJI       17042565
Ms     5.4       49 BJI       17042565
Ms7    5.2       47 BJI       17042565
mb     5.2 0.0   47 IDC       16731186
mb1    5.2 0.0   52 IDC       16731186
mb1mx  5.2 0.1   59 IDC       16731186
mbtmp  5.2 0.0   52 IDC       16731186
ML     4.2 0.2    5 IDC       16731186
MS     5.2 0.1   30 IDC       16731186
Ms1    5.2 0.1   30 IDC       16731186
ms1mx  5.1 0.1   35 IDC       16731186
mb     5.9       77 MOS       01811529
MS     5.0       32 MOS       01811529
mb     5.6 0.3   99 CSEM      02254014
Ms     5.1          CSEM      02254014
Mw     5.4          CSEM      02254014
Mb     5.4 0.0      STR       00010407
MW     5.4      117 GCMT      00128397
mb     5.6       92 NEIC      02427354
MS     5.1      187 NEIC      02427354
ML     5.2          DHMR      01623554
mb     5.9          DSN       01450602
mb     5.6 0.2  276 ISC       02756494
MS     5.1 0.2  233 ISC       02756494

Event 17206144 Southern Iran
   Date       Time        Err   RMS Latitude Longitude  Smaj  Smin  Az Depth   Err Ndef Nsta Gap  mdist  Mdist Qual   Author      OrigID
2011/06/15 01:05:19.30   1.45 0.600  27.4720   58.2480  43.8  73.0  -1   4.7  94.3         6 343                      ISN       01732654
2011/06/15 01:05:27.10   0.86        27.9280   57.5760   5.7   3.3 121  33.0        198                               MOS       01811561
2011/06/15 01:05:27.29   0.12 1.164  27.8871   57.6249 2.679 1.668   7  34.7d      1713 1751  37   0.77  97.51 m i fe ISCJB     03194342
2011/06/15 01:05:27.30   0.75 0.400  27.9410   57.7480   3.1   4.2  -1  17.9   6.7        12 143                      THR       01800839
2011/06/15 01:05:28.40        1.550  28.0000   57.6000                  35.0         82      313  18.60  59.90     uk BJI       17042596
2011/06/15 01:05:29.00   0.08 1.010  28.0203   57.7044   3.4   2.6  11  33.1        675  625  32   0.90 134.95     ke CSEM      02252867
2011/06/15 01:05:29.00               27.9800   57.5700                  40.0          8    4 354  45.19  52.30     ke SFS       02252878
2011/06/15 01:05:30.29   1.48 0.980  27.9862   57.7038  10.6   8.6 159  45.7  13.6   61       49   4.80 128.85     uk IDC       16731421
2011/06/15 01:05:30.70   0.10        27.7100   57.5600 1.112 1.112  -1  41.4   0.7  422  113                          GCMT      00128431
 (#CENTROID)
2011/06/15 01:05:30.70        0.600  27.7840   57.7660                  34.0              22 192                      TEH       01717299
2011/06/15 01:05:30.70f              27.7840   57.7660f                 34.0f                 44   1.14 134.95     fe NEIC      02427489
2011/06/15 01:05:30.91  20.80 1.300  27.8685   57.7735   2.6   1.3 273  25.2   0.5   20      103   2.33  42.82     uk OMAN      02162831
2011/06/15 01:05:31.30   0.02 0.850  27.9409   57.6536   1.9   0.7 290  36.0   0.0   14       10   2.32  31.28        DSN       01450611
2011/06/15 01:05:28.75   0.28 1.526  27.9499   57.6566 3.484 2.989 150  33.3  1.01 1865 1754  33   0.82 134.90 m i fe ISC       02756807
 (#PRIME)

Magnitude  Err Nsta Author      OrigID
ML     5.3          ISN       01732654
mb     5.5       80 MOS       01811561
MS     4.9       56 MOS       01811561
ML     5.7          THR       01800839
mb     5.1       73 BJI       17042596
mB     5.2       45 BJI       17042596
Ms     5.2       77 BJI       17042596
Ms7    4.9       73 BJI       17042596
mb     5.3 0.3   99 CSEM      02252867
Ms     5.0          CSEM      02252867
ML     5.3          SFS       02252878
mb     4.9 0.1   35 IDC       16731421
mb1    5.0 0.1   41 IDC       16731421
mb1mx  4.9 0.0   47 IDC       16731421
mbtmp  5.2 0.1   41 IDC       16731421
ML     5.1 0.2    5 IDC       16731421
MS     4.8 0.1   10 IDC       16731421
Ms1    4.8 0.1   10 IDC       16731421
ms1mx  4.7 0.1   14 IDC       16731421
MW     5.5      113 GCMT      00128431
ML     5.3          TEH       01717299
mb     5.4      115 NEIC      02427489
MS     5.0      136 NEIC      02427489
ML     5.7          THR       02427489
MN     5.3          TEH       02427489
mb     5.2          DSN       01450611
ML     6.1          DSN       01450611
mb     5.3 0.2  244 ISC       02756807
MS     5.0 0.2  177 ISC       02756807

